STARLINK-5642           
1 55430C 23014AR  26097.44493056 -.00047789  00000+0 -40057-2 0   979
2 55430  70.0022  31.8756 0002852 271.0643 242.5676 14.98347117    18
STARLINK-5643           
1 55431C 23014AS  26097.48104167 -.00013225  00000+0 -11087-2 0   975
2 55431  70.0020  12.0263 0003074 269.7116 349.8162 14.98323352    13
STARLINK-5637           
1 55432C 23014AT  26097.38312500 -.00027887  00000+0 -23374-2 0   978
2 55432  70.0022  32.0840 0002794 277.1435 217.3007 14.98339593    15
STARLINK-5570           
1 55433C 23014AU  26097.42479167 -.00048094  00000+0 -40311-2 0   970
2 55433  70.0021  31.9018 0002583 277.0935 150.4518 14.98350388    19
STARLINK-5621           
1 55434C 23014AV  26097.37548611 -.00033045  00000+0 -27693-2 0   974
2 55434  70.0021  32.1527 0002972 269.0886 140.0402 14.98347115    17
STARLINK-5626           
1 55435C 23014AW  26097.46090278 -.00045965  00000+0 -38531-2 0   973
2 55435  70.0021  31.8880 0003142 272.2558 282.4958 14.98343257    18
STARLINK-5640           
1 55436C 23014AX  26097.44840278 -.00049712  00000+0 -41671-2 0   978
2 55436  70.0022  31.9942 0002944 273.0224 146.7987 14.98345608    14
STARLINK-5074           
1 55438C 23014AZ  26097.46993056  .00022311  00000+0  18702-2 0   978
2 55438  70.0011 351.7203 0002968 271.8069 356.6900 14.98309823    12
STARLINK-5634           
1 55439C 23014BA  26097.47340278 -.00045416  00000+0 -38071-2 0   976
2 55439  70.0021  31.9582 0002954 270.0119 262.1121 14.98343132    10
STARLINK-5699           
1 55449C 23015A   26097.49562500 -.00188050  00000+0 -69772-2 0   978
2 55449  42.9993 166.0423 0001673 269.7681 232.3516 15.26879919    13
STARLINK-5686           
1 55450C 23015B   26097.46784722 -.00007300  00000+0 -27136-3 0   976
2 55450  42.9993 166.1738 0001626 262.5232  97.8908 15.26728573    14
STARLINK-5656           
1 55451C 23015C   26097.44006944 -.00014034  00000+0 -52145-3 0   978
2 55451  42.9994 166.6191 0001319 281.8084 162.1673 15.26745809    18
STARLINK-5683           
1 55452C 23015D   26097.38590278 -.00062275  00000+0 -23133-2 0   974
2 55452  43.0002 166.9510 0001082 272.1587 220.1423 15.26780205    14
STARLINK-5684           
1 55453C 23015E   26097.37479167 -.00023823  00000+0 -88523-3 0   978
2 55453  43.0005 166.3770 0001728 270.4634  71.5924 15.26748761    16
STARLINK-5636           
1 55454C 23015F   26097.42618056 -.00061825  00000+0 -22972-2 0   976
2 55454  43.0002 166.0641 0001334 272.0113 358.1837 15.26770588    10
STARLINK-5680           
1 55455C 23015G   26097.44076389 -.00014760  00000+0 -53471-3 0   971
2 55455  42.9995 166.7609 0001021 285.7395  99.9650 15.27580753    14
STARLINK-5058           
1 55456C 23015H   26097.48590278  .00002909  00000+0  10820-3 0   975
2 55456  43.0011 165.9237 0001829 271.8261 249.3514 15.26698908    19
STARLINK-5682           
1 55457C 23015J   26097.42270833 -.00097635  00000+0 -36265-2 0   974
2 55457  43.0003 166.1028 0001358 271.6093 335.6585 15.26799877    14
STARLINK-5020           
1 55458C 23015K   26097.42340278 -.00057855  00000+0 -21494-2 0   974
2 55458  42.9994 166.5054 0001531 275.3916 162.3978 15.26772220    17
STARLINK-5669           
1 55459C 23015L   26097.47340278 -.00004260  00000+0 -15831-3 0   971
2 55459  43.0016 165.9452 0001961 273.9446 197.8993 15.26734727    19
STARLINK-5678           
1 55460C 23015M   26097.39562500 -.00019135  00000+0 -71108-3 0   974
2 55460  42.9990 166.5910 0001608 271.7703  44.0682 15.26743880    14
STARLINK-5646           
1 55461C 23015N   26097.42895833 -.00011596  00000+0 -43102-3 0   973
2 55461  43.0008 166.2948 0001816 271.6715 274.0303 15.26733724    19
STARLINK-5673           
1 55462C 23015P   26097.39562500 -.00042800  00000+0 -15898-2 0   974
2 55462  43.0011 166.3639 0001988 278.2174 132.7606 15.26769862    12
STARLINK-5677           
1 55463C 23015Q   26097.43034722  .00007056  00000+0  37026-3 0   970
2 55463  42.9985 167.7468 0001057 290.4572   4.4751 15.14964189    13
STARLINK-5676           
1 55464C 23015R   26097.39562500 -.00021689  00000+0 -80660-3 0   978
2 55464  43.0005 166.4862 0001494 264.7112  93.5748 15.26720578    12
STARLINK-5674           
1 55465C 23015S   26097.44284722 -.00012190  00000+0 -45312-3 0   974
2 55465  43.0005 166.0550 0001515 268.0321  60.4364 15.26731557    12
STARLINK-5628           
1 55466C 23015T   26097.38659722 -.00018318  00000+0 -69816-3 0   977
2 55466  42.9991 166.6710 0001384 264.0758 347.3864 15.25909877    16
STARLINK-5679           
1 55467C 23015U   26097.39909722 -.00022746  00000+0 -82416-3 0   978
2 55467  43.0017 166.3198 0001767 268.8477 170.4286 15.27577342    13
STARLINK-5672           
1 55468C 23015V   26097.39215278 -.00023742  00000+0 -88247-3 0   970
2 55468  43.0007 166.4499 0001595 266.5536  96.4132 15.26740262    17
STARLINK-5681           
1 55469C 23015W   26097.38451389 -.00041901  00000+0 -15550-2 0   978
2 55469  43.0004 166.3780 0001684 281.1030  88.6561 15.26800636    19
STARLINK-5708           
1 55470C 23015X   26097.42131944 -.00012327  00000+0 -45812-3 0   972
2 55470  43.0006 166.2402 0002135 268.9849 273.4039 15.26738123    11
STARLINK-5711           
1 55471C 23015Y   26097.49076389  .00006843  00000+0  25411-3 0   978
2 55471  43.0012 165.7541 0001822 277.9023 324.4765 15.26756615    12
STARLINK-5705           
1 55472C 23015Z   26097.42965278 -.00003604  00000+0 -21795-3 0   971
2 55472  42.9995 156.4716 0001350 268.4883  13.7095 15.09892230    16
STARLINK-5689           
1 55474C 23015AB  26097.43173611  .00035171  00000+0  12751-2 0   979
2 55474  43.0006 177.7475 0001409 253.7133 230.9535 15.27530579    18
STARLINK-5650           
1 55475C 23015AC  26097.49076389  .00000761  00000+0  28290-4 0   974
2 55475  42.9990 166.1060 0001531 274.2893 180.2613 15.26727367    14
STARLINK-5685           
1 55477C 23015AE  26097.43729167 -.00056791  00000+0 -34316-2 0   979
2 55477  42.9997 156.0353 0001264 265.9116 222.9116 15.09950053    17
STARLINK-5691           
1 55478C 23015AF  26097.43381944  .00746430  00000+0  30490-1 0   979
2 55478  42.9989 155.6417 0001556 283.5633   1.3076 15.23219264    11
STARLINK-5688           
1 55479C 23015AG  26097.43520833 -.00003017  00000+0 -18236-3 0   977
2 55479  42.9995 156.4786 0001715 271.4555  23.3954 15.09909945    18
STARLINK-5690           
1 55480C 23015AH  26097.45187500 -.00014139  00000+0 -52544-3 0   978
2 55480  43.0011 176.8873 0001568 264.9184 250.0095 15.26740596    14
STARLINK-5694           
1 55481C 23015AJ  26097.41229167 -.00069737  00000+0 -25909-2 0   979
2 55481  43.0000 177.4352 0001354 269.1421 286.2621 15.26778009    12
STARLINK-5692           
1 55483C 23015AL  26097.37895833 -.00024179  00000+0 -89848-3 0   979
2 55483  43.0020 177.3327 0001787 273.5960 220.6984 15.26747811    15
STARLINK-5696           
1 55484C 23015AM  26097.37270833 -.00039197  00000+0 -14195-2 0   975
2 55484  43.0006 178.0073 0001271 265.2840 282.6598 15.27603553    13
STARLINK-5695           
1 55485C 23015AN  26097.36923611 -.00019077  00000+0 -70872-3 0   974
2 55485  43.0002 177.8376 0001352 262.7588 346.2491 15.26753527    19
STARLINK-5704           
1 55486C 23015AP  26097.44354167 -.00012882  00000+0 -46673-3 0   977
2 55486  42.9998 177.4747 0001330 265.2108 348.1427 15.27574362    11
STARLINK-5701           
1 55487C 23015AQ  26097.47548611 -.00055302  00000+0 -20034-2 0   976
2 55487  42.9996 177.1961 0001320 269.2571 223.6064 15.27599466    18
STARLINK-5706           
1 55488C 23015AR  26097.38312500 -.00024141  00000+0 -87453-3 0   979
2 55488  42.9995 177.6749 0001241 270.8754  87.6255 15.27585031    13
STARLINK-5371           
1 55489C 23015AS  26097.40395833 -.00021152  00000+0 -78551-3 0   971
2 55489  42.9995 177.5018 0001361 263.3992 236.4364 15.26767351    17
STARLINK-5373           
1 55490C 23015AT  26097.45881944 -.00057715  00000+0 -21444-2 0   973
2 55490  43.0021 176.8723 0001899 271.0388 301.8879 15.26768761    11
STARLINK-5364           
1 55491C 23015AU  26097.38520833 -.00021913  00000+0 -12826-2 0   978
2 55491  42.9997 155.9957 0001396 263.2816  72.0178 15.11083551    10
STARLINK-5013           
1 55492C 23015AV  26097.45048611 -.00035079  00000+0 -12709-2 0   974
2 55492  42.9992 177.3560 0001319 261.0265  80.0513 15.27586091    19
STARLINK-5362           
1 55493C 23015AW  26097.39076389 -.00052052  00000+0 -19337-2 0   975
2 55493  43.0025 177.1994 0002236 278.9784 305.8924 15.26770763    14
STARLINK-5344           
1 55494C 23015AX  26097.45673611 -.00074004  00000+0 -27494-2 0   978
2 55494  43.0002 177.2436 0001359 271.0838 138.9739 15.26780720    14
STARLINK-5100           
1 55495C 23015AY  26097.42479167 -.00009704  00000+0 -56808-3 0   973
2 55495  42.9993 156.0097 0001426 260.9603 199.8286 15.11073060    11
STARLINK-5363           
1 55497C 23015BA  26097.49284722 -.00002226  00000+0 -80653-4 0   971
2 55497  42.9999 177.2006 0001290 276.3208 262.5566 15.27574931    14
STARLINK-5365           
1 55498C 23015BB  26097.47131944 -.00041566  00000+0 -15458-2 0   976
2 55498  43.0003 177.3119 0001335 268.1619 156.6678 15.26731831    14
STARLINK-5366           
1 55499C 23015BC  26097.46506944 -.00009243  00000+0 -33483-3 0   977
2 55499  43.0005 176.8913 0001458 268.9014 315.0544 15.27578448    13
STARLINK-5141           
1 55500C 23015BD  26097.48034722 -.00009186  00000+0 -34111-3 0   977
2 55500  43.0000 177.2457 0001205 272.5298 208.7305 15.26765379    17
STARLINK-5367           
1 55501C 23015BE  26097.42201389 -.00053085  00000+0 -19720-2 0   972
2 55501  43.0005 177.6726 0001331 267.5370 208.5055 15.26773686    11
STARLINK-5749           
1 55569C 23020A   26097.46090278 -.00028782  00000+0 -10968-2 0   970
2 55569  43.0016 205.7077 0002280 270.8813 242.5129 15.25917641    12
